{
  "links" : {
    "next" : "https://api.nasa.gov/neo/rest/v1/neo/browse?page=47&size=20&api_key=jqAGvNAwUIBu4fl9FSOjdm3V4F7hIglRzI6pdX9d",
    "prev" : "https://api.nasa.gov/neo/rest/v1/neo/browse?page=45&size=20&api_key=jqAGvNAwUIBu4fl9FSOjdm3V4F7hIglRzI6pdX9d",
    "self" : "https://api.nasa.gov/neo/rest/v1/neo/browse?page=46&size=20&api_key=jqAGvNAwUIBu4fl9FSOjdm3V4F7hIglRzI6pdX9d"
  },
  "page" : {
    "size" : 20,
    "total_elements" : 20750,
    "total_pages" : 1038,
    "number" : 46
  },
  "near_earth_objects" : [ {
    "links" : {
      "self" : "https://api.nasa.gov/neo/rest/v1/neo/3428697?api_key=jqAGvNAwUIBu4fl9FSOjdm3V4F7hIglRzI6pdX9d"
    },
    "neo_reference_id" : "3428697",
    "name" : "(2008 TC)",
    "designation" : "2008 TC",
    "nasa_jpl_url" : "http://ssd.jpl.nasa.gov/sbdb.cgi?sstr=3428697",
    "absolute_magnitude_h" : 23.7,
    "estimated_diameter" : {
      "kilometers" : {
        "estimated_diameter_min" : 0.0483676488,
        "estimated_diameter_max" : 0.1081533507
      },
      "meters" : {
        "estimated_diameter_min" : 48.3676488219,
        "estimated_diameter_max" : 108.1533506775
      },
      "miles" : {
        "estimated_diameter_min" : 0.0300542543,
        "estimated_diameter_max" : 0.0672033557
      },
      "feet" : {
        "estimated_diameter_min" : 158.6865169607,
        "estimated_diameter_max" : 354.8338390368
      }
    },
    "is_potentially_hazardous_asteroid" : false,
    "close_approach_data" : [ {
      "close_approach_date" : "2008-09-09",
      "epoch_date_close_approach" : 1220943600000,
      "relative_velocity" : {
        "kilometers_per_second" : "9.5770207774",
        "kilometers_per_hour" : "34477.2747986886",
        "miles_per_hour" : "21422.8377769962"
      },
      "miss_distance" : {
        "astronomical" : "0.105817359",
        "lunar" : "41.1629524231",
        "kilometers" : "15830052",
        "miles" : "9836338"
      },
      "orbiting_body" : "Earth"
    } ],
    "orbital_data" : {
      "orbit_id" : "8",
      "orbit_determination_date" : "2017-04-06 09:02:47",
      "first_observation_date" : "2008-10-01",
      "last_observation_date" : "2008-10-03",
      "data_arc_in_days" : 2,
      "observations_used" : 24,
      "orbit_uncertainty" : "9",
      "minimum_orbit_intersection" : ".0479476",
      "jupiter_tisserand_invariant" : "3.618",
      "epoch_osculation" : "2454741.5",
      "eccentricity" : ".4991617303812237",
      "semi_major_axis" : "2.056686330317515",
      "inclination" : "2.670435261085762",
      "ascending_node_longitude" : "211.2255393496124",
      "orbital_period" : "1077.334379716987",
      "perihelion_distance" : "1.030067222824815",
      "perihelion_argument" : "106.3843857991255",
      "aphelion_distance" : "3.083305437810214",
      "perihelion_time" : "2454697.011013320988",
      "mean_anomaly" : "14.86635487178242",
      "mean_motion" : ".3341580912832013",
      "equinox" : "J2000",
      "orbit_class" : {
        "orbit_class_type" : "AMO",
        "orbit_class_range" : "1.017 AU < q (perihelion) < 1.3 AU",
        "orbit_class_description" : "Near-Earth asteroid orbits similar to that of 1221 Amor"
      }
    },
    "is_sentry_object" : false
  }, {
    "links" : {
      "self" : "https://api.nasa.gov/neo/rest/v1/neo/3428701?api_key=jqAGvNAwUIBu4fl9FSOjdm3V4F7hIglRzI6pdX9d"
    },
    "neo_reference_id" : "3428701",
    "name" : "(2008 TG)",
    "designation" : "2008 TG",
    "nasa_jpl_url" : "http://ssd.jpl.nasa.gov/sbdb.cgi?sstr=3428701",
    "absolute_magnitude_h" : 23.0,
    "estimated_diameter" : {
      "kilometers" : {
        "estimated_diameter_min" : 0.0667659413,
        "estimated_diameter_max" : 0.1492931834
      },
      "meters" : {
        "estimated_diameter_min" : 66.7659413495,
        "estimated_diameter_max" : 149.2931834393
      },
      "miles" : {
        "estimated_diameter_min" : 0.0414864197,
        "estimated_diameter_max" : 0.0927664547
      },
      "feet" : {
        "estimated_diameter_min" : 219.0483710172,
        "estimated_diameter_max" : 489.807047955
      }
    },
    "is_potentially_hazardous_asteroid" : false,
    "close_approach_data" : [ {
      "close_approach_date" : "2008-09-02",
      "epoch_date_close_approach" : 1220338800000,
      "relative_velocity" : {
        "kilometers_per_second" : "4.4954458833",
        "kilometers_per_hour" : "16183.6051797074",
        "miles_per_hour" : "10055.8628962465"
      },
      "miss_distance" : {
        "astronomical" : "0.1786560069",
        "lunar" : "69.4971923828",
        "kilometers" : "26726560",
        "miles" : "16607114"
      },
      "orbiting_body" : "Earth"
    } ],
    "orbital_data" : {
      "orbit_id" : "12",
      "orbit_determination_date" : "2017-04-06 09:02:45",
      "first_observation_date" : "2008-10-01",
      "last_observation_date" : "2008-10-20",
      "data_arc_in_days" : 19,
      "observations_used" : 30,
      "orbit_uncertainty" : "8",
      "minimum_orbit_intersection" : ".175474",
      "jupiter_tisserand_invariant" : "3.230",
      "epoch_osculation" : "2454747.5",
      "eccentricity" : ".5346730419408868",
      "semi_major_axis" : "2.538231141602473",
      "inclination" : "1.685235044133244",
      "ascending_node_longitude" : "243.8593447582475",
      "orbital_period" : "1477.049939306317",
      "perihelion_distance" : "1.181107375972789",
      "perihelion_argument" : "99.37367572539533",
      "aphelion_distance" : "3.895354907232158",
      "perihelion_time" : "2454713.195700032833",
      "mean_anomaly" : "8.36095494102249",
      "mean_motion" : ".2437290645494835",
      "equinox" : "J2000",
      "orbit_class" : {
        "orbit_class_type" : "AMO",
        "orbit_class_range" : "1.017 AU < q (perihelion) < 1.3 AU",
        "orbit_class_description" : "Near-Earth asteroid orbits similar to that of 1221 Amor"
      }
    },
    "is_sentry_object" : false
  }, {
    "links" : {
      "self" : "https://api.nasa.gov/neo/rest/v1/neo/3428702?api_key=jqAGvNAwUIBu4fl9FSOjdm3V4F7hIglRzI6pdX9d"
    },
    "neo_reference_id" : "3428702",
    "name" : "(2008 TH)",
    "designation" : "2008 TH",
    "nasa_jpl_url" : "http://ssd.jpl.nasa.gov/sbdb.cgi?sstr=3428702",
    "absolute_magnitude_h" : 24.9,
    "estimated_diameter" : {
      "kilometers" : {
        "estimated_diameter_min" : 0.0278326768,
        "estimated_diameter_max" : 0.0622357573
      },
      "meters" : {
        "estimated_diameter_min" : 27.8326768072,
        "estimated_diameter_max" : 62.2357573367
      },
      "miles" : {
        "estimated_diameter_min" : 0.0172944182,
        "estimated_diameter_max" : 0.0386714948
      },
      "feet" : {
        "estimated_diameter_min" : 91.3145593761,
        "estimated_diameter_max" : 204.1855621004
      }
    },
    "is_potentially_hazardous_asteroid" : false,
    "close_approach_data" : [ {
      "close_approach_date" : "2008-10-16",
      "epoch_date_close_approach" : 1224140400000,
      "relative_velocity" : {
        "kilometers_per_second" : "16.0330830051",
        "kilometers_per_hour" : "57719.0988181984",
        "miles_per_hour" : "35864.4033740078"
      },
      "miss_distance" : {
        "astronomical" : "0.0623296638",
        "lunar" : "24.2462387085",
        "kilometers" : "9324385",
        "miles" : "5793904.5"
      },
      "orbiting_body" : "Earth"
    }, {
      "close_approach_date" : "2052-09-28",
      "epoch_date_close_approach" : 2611119600000,
      "relative_velocity" : {
        "kilometers_per_second" : "27.5704281763",
        "kilometers_per_hour" : "99253.541434639",
        "miles_per_hour" : "61672.29078754"
      },
      "miss_distance" : {
        "astronomical" : "0.3482897585",
        "lunar" : "135.4847106934",
        "kilometers" : "52103408",
        "miles" : "32375556"
      },
      "orbiting_body" : "Earth"
    } ],
    "orbital_data" : {
      "orbit_id" : "10",
      "orbit_determination_date" : "2017-04-06 09:02:45",
      "first_observation_date" : "2008-10-01",
      "last_observation_date" : "2008-10-07",
      "data_arc_in_days" : 6,
      "observations_used" : 25,
      "orbit_uncertainty" : "9",
      "minimum_orbit_intersection" : ".0395163",
      "jupiter_tisserand_invariant" : "4.685",
      "epoch_osculation" : "2454742.5",
      "eccentricity" : ".5620160382610946",
      "semi_major_axis" : "1.350146381552652",
      "inclination" : "9.332576453208732",
      "ascending_node_longitude" : "7.295031569767956",
      "orbital_period" : "573.0199100065796",
      "perihelion_distance" : ".5913424611198785",
      "perihelion_argument" : "112.1077992455602",
      "aphelion_distance" : "2.108950301985427",
      "perihelion_time" : "2454810.895761439678",
      "mean_anomaly" : "317.0303340454586",
      "mean_motion" : ".628250421518279",
      "equinox" : "J2000",
      "orbit_class" : {
        "orbit_class_type" : "APO",
        "orbit_class_range" : "a (semi-major axis) > 1.0 AU; q (perihelion) < 1.017 AU",
        "orbit_class_description" : "Near-Earth asteroid orbits which cross the Earth’s orbit similar to that of 1862 Apollo"
      }
    },
    "is_sentry_object" : false
  } ]
}